{"type":"FeatureCollection","features":[{"type":"Feature","properties":{"id":"scz-dm-8","nombre":"Distrito 8","nivel":"distrito","municipio":"Santa Cruz de la Sierra","provincia":"Andrés Ibáñez","departamento":"Santa Cruz","distrito":"8","fuente":"GAM Santa Cruz vía YoViajo/geodatos"},"geometry":{"type":"Polygon","coordinates":[[[-63.109768,-17.818264],[-63.081162,-17.829828],[-63.070158,-17.834037],[-63.075993,-17.841485],[-63.07767,-17.844009],[-63.080595,-17.847992],[-63.092012,-17.857281],[-63.104557,-17.868949],[-63.105141,-17.86812],[-63.110402,-17.862185],[-63.114514,-17.856696],[-63.116235,-17.855068],[-63.116672,-17.85531],[-63.118397,-17.853736],[-63.121813,-17.856731],[-63.120819,-17.857966],[-63.132697,-17.860053],[-63.151787,-17.835226],[-63.158644,-17.826443],[-63.151968,-17.818709],[-63.14319,-17.811619],[-63.109749,-17.813772],[-63.109768,-17.818264]]]}},{"type":"Feature","properties":{"id":"scz-dm-1","nombre":"Distrito 1","nivel":"distrito","municipio":"Santa Cruz de la Sierra","provincia":"Andrés Ibáñez","departamento":"Santa Cruz","distrito":"1","fuente":"GAM Santa Cruz vía YoViajo/geodatos"},"geometry":{"type":"Polygon","coordinates":[[[-63.184662,-17.743264],[-63.184522,-17.743528],[-63.182788,-17.743257],[-63.180726,-17.743302],[-63.180473,-17.743646],[-63.180369,-17.744061],[-63.179233,-17.743833],[-63.176425,-17.743655],[-63.173107,-17.744514],[-63.182011,-17.767198],[-63.182401,-17.7687],[-63.182479,-17.769515],[-63.182453,-17.770483],[-63.183309,-17.770498],[-63.184578,-17.770792],[-63.189383,-17.772186],[-63.190459,-17.772664],[-63.191536,-17.77351],[-63.192345,-17.774798],[-63.194697,-17.782748],[-63.195007,-17.784441],[-63.194499,-17.790097],[-63.20414,-17.79426],[-63.205518,-17.795038],[-63.21603,-17.797401],[-63.21923,-17.799019],[-63.223044,-17.80049],[-63.224768,-17.801032],[-63.226418,-17.801838],[-63.227865,-17.801327],[-63.231279,-17.801852],[-63.229542,-17.800461],[-63.226484,-17.795502],[-63.225928,-17.792121],[-63.22475,-17.788722],[-63.223802,-17.786187],[-63.222393,-17.783793],[-63.215924,-17.775989],[-63.20899,-17.769412],[-63.205722,-17.765869],[-63.202877,-17.761836],[-63.201877,-17.758629],[-63.201063,-17.756693],[-63.200118,-17.752932],[-63.19851,-17.748492],[-63.197282,-17.746597],[-63.194766,-17.743753],[-63.194059,-17.742543],[-63.193463,-17.740535],[-63.193461,-17.739172],[-63.193747,-17.737581],[-63.193359,-17.735905],[-63.193156,-17.734292],[-63.191945,-17.734395],[-63.191367,-17.736406],[-63.189942,-17.740447],[-63.188989,-17.743413],[-63.184662,-17.743264]]]}},{"type":"Feature","properties":{"id":"scz-dm-4","nombre":"Distrito 4","nivel":"distrito","municipio":"Santa Cruz de la Sierra","provincia":"Andrés Ibáñez","departamento":"Santa Cruz","distrito":"4","fuente":"GAM Santa Cruz vía YoViajo/geodatos"},"geometry":{"type":"Polygon","coordinates":[[[-63.188125,-17.801097],[-63.18715,-17.80116],[-63.185622,-17.800882],[-63.175392,-17.798063],[-63.174868,-17.800412],[-63.172196,-17.807535],[-63.172839,-17.80794],[-63.171717,-17.809632],[-63.166732,-17.815979],[-63.170847,-17.819203],[-63.171634,-17.819788],[-63.172538,-17.820328],[-63.174263,-17.821191],[-63.175481,-17.821673],[-63.178494,-17.822416],[-63.180521,-17.822667],[-63.182747,-17.822749],[-63.184277,-17.822723],[-63.186756,-17.822541],[-63.189381,-17.822153],[-63.191342,-17.821725],[-63.194817,-17.820668],[-63.196602,-17.819963],[-63.198807,-17.818915],[-63.203757,-17.815804],[-63.206035,-17.813912],[-63.208182,-17.811831],[-63.210825,-17.808608],[-63.211994,-17.806892],[-63.213067,-17.80507],[-63.214095,-17.803019],[-63.214807,-17.80132],[-63.215403,-17.799642],[-63.21603,-17.797401],[-63.205518,-17.795038],[-63.20414,-17.79426],[-63.194499,-17.790097],[-63.194033,-17.79527],[-63.193677,-17.79664],[-63.192671,-17.798104],[-63.190529,-17.800286],[-63.189262,-17.800878],[-63.188125,-17.801097]]]}},{"type":"Feature","properties":{"id":"scz-dm-2","nombre":"Distrito 2","nivel":"distrito","municipio":"Santa Cruz de la Sierra","provincia":"Andrés Ibáñez","departamento":"Santa Cruz","distrito":"2","fuente":"GAM Santa Cruz vía YoViajo/geodatos"},"geometry":{"type":"Polygon","coordinates":[[[-63.164341,-17.78723],[-63.164302,-17.786659],[-63.164529,-17.78226],[-63.164986,-17.778283],[-63.165867,-17.774306],[-63.166672,-17.77287],[-63.168016,-17.771543],[-63.16936,-17.770732],[-63.171128,-17.770252],[-63.182453,-17.770483],[-63.18248,-17.769514],[-63.182402,-17.768701],[-63.182013,-17.767199],[-63.175254,-17.749958],[-63.1737,-17.750248],[-63.1673,-17.751065],[-63.165428,-17.751381],[-63.163925,-17.751762],[-63.162535,-17.752173],[-63.161189,-17.7527],[-63.159219,-17.753667],[-63.157862,-17.754457],[-63.154989,-17.756518],[-63.152709,-17.758938],[-63.151328,-17.760632],[-63.14925,-17.764053],[-63.148288,-17.766131],[-63.147297,-17.768755],[-63.147155,-17.769538],[-63.147063,-17.771827],[-63.147083,-17.775609],[-63.147235,-17.778141],[-63.147715,-17.782164],[-63.148002,-17.785746],[-63.156262,-17.785445],[-63.156736,-17.785353],[-63.157807,-17.784971],[-63.158767,-17.784902],[-63.15962,-17.785085],[-63.160369,-17.785464],[-63.162785,-17.787612],[-63.163672,-17.78761],[-63.164341,-17.78723]]]}},{"type":"Feature","properties":{"id":"scz-dm-3","nombre":"Distrito 3","nivel":"distrito","municipio":"Santa Cruz de la Sierra","provincia":"Andrés Ibáñez","departamento":"Santa Cruz","distrito":"3","fuente":"GAM Santa Cruz vía YoViajo/geodatos"},"geometry":{"type":"Polygon","coordinates":[[[-63.156622,-17.785384],[-63.148002,-17.785746],[-63.148214,-17.789217],[-63.147265,-17.789121],[-63.146139,-17.78936],[-63.145143,-17.789916],[-63.14437,-17.790736],[-63.144057,-17.791294],[-63.141041,-17.807301],[-63.14128,-17.808439],[-63.141698,-17.809528],[-63.142284,-17.810544],[-63.143025,-17.811461],[-63.151968,-17.818721],[-63.158649,-17.826448],[-63.171717,-17.809644],[-63.172839,-17.807952],[-63.172196,-17.807547],[-63.174868,-17.800424],[-63.175392,-17.798075],[-63.174152,-17.798096],[-63.169733,-17.798799],[-63.168772,-17.798689],[-63.167503,-17.798028],[-63.166695,-17.796924],[-63.165613,-17.791181],[-63.1644,-17.787809],[-63.16434,-17.787224],[-63.163672,-17.78761],[-63.162785,-17.787612],[-63.161876,-17.786861],[-63.160493,-17.785548],[-63.159876,-17.785189],[-63.159116,-17.784948],[-63.158078,-17.784922],[-63.156622,-17.785384]]]}},{"type":"Feature","properties":{"id":"scz-dm-5","nombre":"Distrito 5","nivel":"distrito","municipio":"Santa Cruz de la Sierra","provincia":"Andrés Ibáñez","departamento":"Santa Cruz","distrito":"5","fuente":"GAM Santa Cruz vía YoViajo/geodatos"},"geometry":{"type":"Polygon","coordinates":[[[-63.120241,-17.705479],[-63.122104,-17.708206],[-63.122997,-17.709195],[-63.123297,-17.709639],[-63.124735,-17.712617],[-63.125683,-17.713576],[-63.126204,-17.714322],[-63.127493,-17.715168],[-63.128362,-17.71638],[-63.145589,-17.742151],[-63.155251,-17.75632],[-63.157862,-17.754457],[-63.159038,-17.753765],[-63.161047,-17.752763],[-63.16281,-17.752082],[-63.165428,-17.751381],[-63.1673,-17.751065],[-63.1737,-17.750248],[-63.175252,-17.749958],[-63.173107,-17.744514],[-63.176425,-17.743655],[-63.179233,-17.743833],[-63.180369,-17.744061],[-63.180473,-17.743646],[-63.180726,-17.743302],[-63.182788,-17.743257],[-63.184522,-17.743528],[-63.184662,-17.743264],[-63.188989,-17.743413],[-63.189942,-17.740447],[-63.191367,-17.736406],[-63.192339,-17.732946],[-63.192221,-17.731501],[-63.192188,-17.729197],[-63.189637,-17.720791],[-63.186506,-17.714366],[-63.1868,-17.71327],[-63.187309,-17.712139],[-63.188053,-17.711347],[-63.190326,-17.709459],[-63.190992,-17.709195],[-63.191698,-17.709043],[-63.191973,-17.708892],[-63.192129,-17.708665],[-63.193713,-17.703152],[-63.194301,-17.700121],[-63.194264,-17.699519],[-63.190861,-17.695072],[-63.189898,-17.693162],[-63.194905,-17.679283],[-63.195636,-17.675314],[-63.189984,-17.667373],[-63.189293,-17.658855],[-63.176151,-17.659468],[-63.158617,-17.672687],[-63.158751,-17.675483],[-63.143853,-17.670364],[-63.126222,-17.69659],[-63.121164,-17.704391],[-63.120241,-17.705479]]]}},{"type":"Feature","properties":{"id":"scz-dm-6","nombre":"Distrito 6","nivel":"distrito","municipio":"Santa Cruz de la Sierra","provincia":"Andrés Ibáñez","departamento":"Santa Cruz","distrito":"6","fuente":"GAM Santa Cruz vía YoViajo/geodatos"},"geometry":{"type":"Polygon","coordinates":[[[-63.082929,-17.765217],[-63.125561,-17.781002],[-63.148214,-17.789205],[-63.147713,-17.782163],[-63.147382,-17.779756],[-63.128885,-17.772833],[-63.123097,-17.770538],[-63.130759,-17.756972],[-63.130998,-17.756356],[-63.131129,-17.755711],[-63.131146,-17.755054],[-63.13101,-17.754244],[-63.130703,-17.753478],[-63.129475,-17.751344],[-63.114635,-17.727802],[-63.113506,-17.725029],[-63.112802,-17.723673],[-63.109135,-17.718174],[-63.106218,-17.716912],[-63.093966,-17.712015],[-63.065063,-17.700728],[-63.063404,-17.713033],[-63.063915,-17.714085],[-63.062308,-17.733556],[-63.06202,-17.73648],[-63.061762,-17.738122],[-63.061313,-17.740016],[-63.060395,-17.742709],[-63.054424,-17.758889],[-63.053141,-17.75869],[-63.049867,-17.76689],[-63.049567,-17.76927],[-63.052818,-17.767232],[-63.054664,-17.767138],[-63.064142,-17.764045],[-63.074168,-17.764604],[-63.077587,-17.764706],[-63.082929,-17.765217]]]}},{"type":"Feature","properties":{"id":"scz-dm-7","nombre":"Distrito 7","nivel":"distrito","municipio":"Santa Cruz de la Sierra","provincia":"Andrés Ibáñez","departamento":"Santa Cruz","distrito":"7","fuente":"GAM Santa Cruz vía YoViajo/geodatos"},"geometry":{"type":"Polygon","coordinates":[[[-63.125561,-17.781002],[-63.082929,-17.765217],[-63.077587,-17.764706],[-63.074014,-17.764597],[-63.064142,-17.764045],[-63.054664,-17.767138],[-63.052815,-17.767232],[-63.049567,-17.76927],[-63.048194,-17.777229],[-63.048098,-17.777952],[-63.048072,-17.779451],[-63.047816,-17.780072],[-63.04632,-17.782553],[-63.045933,-17.783373],[-63.045698,-17.784494],[-63.045721,-17.785359],[-63.047145,-17.796609],[-63.047833,-17.80638],[-63.048305,-17.809868],[-63.049155,-17.812474],[-63.049508,-17.813181],[-63.05054,-17.814435],[-63.056098,-17.818807],[-63.059272,-17.821406],[-63.064433,-17.827669],[-63.070158,-17.834037],[-63.081162,-17.829828],[-63.109768,-17.818264],[-63.109746,-17.813772],[-63.143188,-17.811619],[-63.142437,-17.810774],[-63.141728,-17.80963],[-63.141312,-17.808594],[-63.141038,-17.807289],[-63.144053,-17.791285],[-63.144366,-17.79073],[-63.144773,-17.790235],[-63.145263,-17.789815],[-63.145822,-17.789484],[-63.146433,-17.78925],[-63.147077,-17.789123],[-63.147734,-17.789104],[-63.148214,-17.789205],[-63.125561,-17.781002]]]}},{"type":"Feature","properties":{"id":"scz-dm-9","nombre":"Distrito 9","nivel":"distrito","municipio":"Santa Cruz de la Sierra","provincia":"Andrés Ibáñez","departamento":"Santa Cruz","distrito":"9","fuente":"GAM Santa Cruz vía YoViajo/geodatos"},"geometry":{"type":"Polygon","coordinates":[[[-63.213906,-17.856064],[-63.212311,-17.857805],[-63.210199,-17.853277],[-63.20881,-17.849792],[-63.207365,-17.847085],[-63.20264,-17.835321],[-63.203268,-17.832979],[-63.203621,-17.832296],[-63.202901,-17.8318],[-63.200163,-17.829501],[-63.194817,-17.820668],[-63.191342,-17.821725],[-63.189381,-17.822153],[-63.186756,-17.822541],[-63.184277,-17.822723],[-63.182747,-17.822749],[-63.180521,-17.822667],[-63.178494,-17.822416],[-63.175481,-17.821673],[-63.174263,-17.821191],[-63.172538,-17.820328],[-63.171634,-17.819788],[-63.170847,-17.819203],[-63.166732,-17.815979],[-63.158649,-17.826437],[-63.18542,-17.856518],[-63.192487,-17.873522],[-63.193392,-17.875406],[-63.199145,-17.888425],[-63.201528,-17.88708],[-63.220041,-17.871225],[-63.22131,-17.871292],[-63.213906,-17.856064]]]}},{"type":"Feature","properties":{"id":"scz-dm-10","nombre":"Distrito 10","nivel":"distrito","municipio":"Santa Cruz de la Sierra","provincia":"Andrés Ibáñez","departamento":"Santa Cruz","distrito":"10","fuente":"GAM Santa Cruz vía YoViajo/geodatos"},"geometry":{"type":"Polygon","coordinates":[[[-63.214807,-17.80132],[-63.214095,-17.803019],[-63.213067,-17.80507],[-63.211281,-17.807963],[-63.209218,-17.810629],[-63.208182,-17.811831],[-63.206746,-17.813246],[-63.205187,-17.81466],[-63.203757,-17.815804],[-63.201046,-17.81755],[-63.198245,-17.819204],[-63.196602,-17.819963],[-63.194817,-17.820668],[-63.200163,-17.829501],[-63.202901,-17.8318],[-63.203621,-17.832296],[-63.203268,-17.832979],[-63.20264,-17.835321],[-63.207365,-17.847085],[-63.20881,-17.849792],[-63.210199,-17.853277],[-63.212311,-17.857805],[-63.213906,-17.856064],[-63.22131,-17.871292],[-63.227607,-17.871628],[-63.234957,-17.852464],[-63.251205,-17.844945],[-63.251183,-17.833575],[-63.256628,-17.827735],[-63.252827,-17.825481],[-63.2527,-17.819503],[-63.256651,-17.819572],[-63.253491,-17.818396],[-63.251945,-17.817714],[-63.251052,-17.817118],[-63.248855,-17.815032],[-63.247389,-17.813179],[-63.245792,-17.81142],[-63.243885,-17.809534],[-63.24059,-17.806955],[-63.239643,-17.806256],[-63.2363,-17.804177],[-63.231279,-17.801852],[-63.227865,-17.801327],[-63.226418,-17.801838],[-63.224768,-17.801032],[-63.223044,-17.80049],[-63.21923,-17.799019],[-63.21603,-17.797401],[-63.215403,-17.799642],[-63.214807,-17.80132]]]}},{"type":"Feature","properties":{"id":"scz-dm-11","nombre":"Distrito 11","nivel":"distrito","municipio":"Santa Cruz de la Sierra","provincia":"Andrés Ibáñez","departamento":"Santa Cruz","distrito":"11","fuente":"GAM Santa Cruz vía YoViajo/geodatos"},"geometry":{"type":"Polygon","coordinates":[[[-63.167503,-17.798016],[-63.168772,-17.798677],[-63.169733,-17.798787],[-63.174152,-17.798084],[-63.175392,-17.798063],[-63.185622,-17.800882],[-63.18715,-17.80116],[-63.188125,-17.801097],[-63.189262,-17.800878],[-63.190529,-17.800286],[-63.192671,-17.798104],[-63.193677,-17.79664],[-63.194033,-17.79527],[-63.195007,-17.784441],[-63.194697,-17.782748],[-63.192345,-17.774798],[-63.191536,-17.77351],[-63.190459,-17.772664],[-63.189383,-17.772186],[-63.184578,-17.770792],[-63.183309,-17.770498],[-63.171128,-17.770252],[-63.16936,-17.770732],[-63.168016,-17.771543],[-63.166672,-17.77287],[-63.165867,-17.774306],[-63.164986,-17.778283],[-63.164529,-17.78226],[-63.164302,-17.786659],[-63.1644,-17.787797],[-63.165613,-17.791169],[-63.166695,-17.796912],[-63.167503,-17.798016]]]}},{"type":"Feature","properties":{"id":"scz-dm-12","nombre":"Distrito 12","nivel":"distrito","municipio":"Santa Cruz de la Sierra","provincia":"Andrés Ibáñez","departamento":"Santa Cruz","distrito":"12","fuente":"GAM Santa Cruz vía YoViajo/geodatos"},"geometry":{"type":"Polygon","coordinates":[[[-63.151787,-17.835226],[-63.132697,-17.860053],[-63.120819,-17.857966],[-63.121813,-17.856731],[-63.118397,-17.853736],[-63.116672,-17.85531],[-63.116235,-17.855068],[-63.11451,-17.856708],[-63.110402,-17.862185],[-63.105141,-17.86812],[-63.114206,-17.877624],[-63.161092,-17.896387],[-63.164658,-17.897689],[-63.165175,-17.897422],[-63.168547,-17.898716],[-63.169386,-17.898875],[-63.170453,-17.898922],[-63.172195,-17.898747],[-63.172782,-17.898537],[-63.174311,-17.89743],[-63.177,-17.896929],[-63.177319,-17.896795],[-63.178937,-17.894501],[-63.182619,-17.896128],[-63.201036,-17.892669],[-63.192487,-17.873522],[-63.18542,-17.856518],[-63.158649,-17.826437],[-63.151787,-17.835226]]]}},{"type":"Feature","properties":{"id":"scz-dm-13","nombre":"Distrito 13","nivel":"distrito","municipio":"Santa Cruz de la Sierra","provincia":"Andrés Ibáñez","departamento":"Santa Cruz","distrito":"13","fuente":"GAM Santa Cruz vía YoViajo/geodatos"},"geometry":{"type":"Polygon","coordinates":[[[-63.07328,-17.838022],[-63.082514,-17.854162],[-63.088097,-17.864112],[-63.091991,-17.870761],[-63.107986,-17.898765],[-63.118902,-17.898009],[-63.129231,-17.895006],[-63.135666,-17.897812],[-63.148365,-17.897428],[-63.157694,-17.897982],[-63.161594,-17.899289],[-63.164658,-17.897689],[-63.161103,-17.896397],[-63.114216,-17.877634],[-63.104437,-17.868935],[-63.092022,-17.85729],[-63.080605,-17.848001],[-63.076003,-17.841495],[-63.07328,-17.838022]]]}},{"type":"Feature","properties":{"id":"scz-dm-14","nombre":"Distrito 14","nivel":"distrito","municipio":"Santa Cruz de la Sierra","provincia":"Andrés Ibáñez","departamento":"Santa Cruz","distrito":"14","fuente":"GAM Santa Cruz vía YoViajo/geodatos"},"geometry":{"type":"Polygon","coordinates":[[[-62.935028,-17.870223],[-62.931879,-17.884133],[-62.931298,-17.884625],[-62.930149,-17.886616],[-62.92989,-17.887463],[-62.930163,-17.887713],[-62.93334,-17.887262],[-62.933501,-17.88733],[-62.934543,-17.886976],[-62.939039,-17.888522],[-62.937461,-17.892593],[-62.939751,-17.89351],[-62.946874,-17.893893],[-62.946891,-17.893171],[-62.947837,-17.891221],[-62.948561,-17.888806],[-62.950306,-17.884415],[-62.949323,-17.883943],[-62.949657,-17.882948],[-62.950025,-17.880887],[-62.950387,-17.880785],[-62.952269,-17.873353],[-62.935028,-17.870223]]]}},{"type":"Feature","properties":{"id":"scz-dm-15","nombre":"Distrito 15","nivel":"distrito","municipio":"Santa Cruz de la Sierra","provincia":"Andrés Ibáñez","departamento":"Santa Cruz","distrito":"15","fuente":"GAM Santa Cruz vía YoViajo/geodatos"},"geometry":{"type":"Polygon","coordinates":[[[-62.840852,-17.638889],[-62.824056,-17.635154],[-62.809333,-17.632494],[-62.807456,-17.632407],[-62.807959,-17.648777],[-62.815812,-17.650419],[-62.821365,-17.651437],[-62.822741,-17.651521],[-62.82427,-17.651465],[-62.825847,-17.651242],[-62.827208,-17.650908],[-62.828621,-17.65041],[-62.830111,-17.649698],[-62.831376,-17.648916],[-62.832644,-17.647928],[-62.833828,-17.646764],[-62.840852,-17.638889]]]}},{"type":"Feature","properties":{"id":"scz-dm-16","nombre":"Distrito 16","nivel":"distrito","municipio":"Santa Cruz de la Sierra","provincia":"Andrés Ibáñez","departamento":"Santa Cruz","distrito":"16","fuente":"GAM Santa Cruz vía YoViajo/geodatos"},"geometry":{"type":"Polygon","coordinates":[[[-63.105282,-17.712166],[-63.106612,-17.714479],[-63.112808,-17.723669],[-63.113555,-17.725119],[-63.114413,-17.7273],[-63.114986,-17.728435],[-63.118499,-17.73385],[-63.129478,-17.751334],[-63.130706,-17.753468],[-63.130965,-17.754077],[-63.131136,-17.754881],[-63.131146,-17.755538],[-63.131001,-17.756346],[-63.130761,-17.756962],[-63.1231,-17.770528],[-63.128773,-17.772777],[-63.147385,-17.779747],[-63.147151,-17.776986],[-63.147051,-17.774523],[-63.147064,-17.771815],[-63.147211,-17.769113],[-63.147749,-17.767542],[-63.148672,-17.765238],[-63.149573,-17.763418],[-63.150864,-17.761308],[-63.151579,-17.76029],[-63.15271,-17.758926],[-63.155251,-17.75632],[-63.145589,-17.742151],[-63.128362,-17.71638],[-63.127493,-17.715168],[-63.126204,-17.714322],[-63.125683,-17.713576],[-63.124735,-17.712617],[-63.123297,-17.709639],[-63.122997,-17.709195],[-63.122104,-17.708206],[-63.120241,-17.705479],[-63.121164,-17.704391],[-63.124997,-17.698494],[-63.12097,-17.694701],[-63.115938,-17.691634],[-63.11498,-17.690917],[-63.109357,-17.684477],[-63.105769,-17.680892],[-63.101936,-17.67825],[-63.102367,-17.70801],[-63.105282,-17.712166]],[[-63.124749,-17.71264],[-63.124896,-17.712788],[-63.124735,-17.712617],[-63.124749,-17.71264]]]}}]}